OBJECT_NAME,OBJECT_ID,EPOCH,MEAN_MOTION,ECCENTRICITY,INCLINATION,RA_OF_ASC_NODE,ARG_OF_PERICENTER,MEAN_ANOMALY,EPHEMERIS_TYPE,CLASSIFICATION_TYPE,NORAD_CAT_ID,ELEMENT_SET_NO,REV_AT_EPOCH,BSTAR,MEAN_MOTION_DOT,MEAN_MOTION_DDOT
EAGLEEYE,2024-149AS,2026-07-02T12:11:38.829120,15.73987150,.0005045,97.3722,277.7242,206.9620,153.1383,0,U,60508,999,10534,.89045E-3,.127978E-2,0
FLOCK 4BE-29,2024-149AT,2026-07-02T11:18:31.908096,15.44652442,.000243,97.3812,269.5789,207.9338,152.1781,0,U,60509,999,10477,.44527E-3,.20687E-3,0
TRANSPORTER-11 OBJECT AU,2024-149AU,2026-07-02T04:38:45.065760,15.40644890,.00030533,97.3734,267.0374,212.9606,147.1450,0,U,60510,999,10462,.42358601E-3,.17197E-3,0
FLOCK 4BE-2,2024-149AV,2026-07-02T12:26:07.843776,15.54468689,.0004733,97.3831,271.2677,204.9430,155.1595,0,U,60511,999,10488,.10992E-2,.72753E-3,0
FLOCK 4BE-13,2024-149AW,2026-07-02T12:50:06.556704,15.42301617,.0004089,97.3722,268.1092,194.9485,165.1642,0,U,60512,999,10473,.34065E-3,.14593E-3,0
FLOCK 4BE-27,2024-149AX,2026-07-02T15:33:50.609088,15.34717691,.000275,97.3827,265.5094,231.6322,128.4675,0,U,60513,999,10451,.30171E-3,.10076E-3,0
FLOCK 4BE-9,2024-149AY,2026-07-02T13:04:13.217088,15.41255834,.0002462,97.3793,267.9691,210.6017,149.5086,0,U,60514,999,10468,.39532E-3,.16369E-3,0
FLOCK 4BE-6,2024-149BA,2026-07-02T04:41:58.492896,15.39993419,.00030456,97.3792,266.9464,217.0665,143.0371,0,U,60516,999,10458,.43862849E-3,.17433E-3,0
FLOCK 4BE-14,2024-149BB,2026-07-02T11:45:40.872096,15.41487613,.0004064,97.3695,267.3934,219.5234,140.5717,0,U,60517,999,10468,.46999E-3,.19639E-3,0
FLOCK 4BE-1,2024-149BC,2026-07-02T03:58:38.061984,15.43104379,.00038172,97.3782,268.3976,220.0575,140.0391,0,U,60518,999,10468,.48720463E-3,.21496E-3,0
FLOCK 4BE-28,2024-149BD,2026-07-02T13:06:08.510112,15.45447882,.0003886,97.3750,269.5550,212.3345,147.7666,0,U,60519,999,10481,.4079E-3,.19463E-3,0
IPERDRONE.0,2024-149BE,2026-07-02T05:48:55.259136,15.68991104,.0004284,97.3779,277.2205,193.8898,166.2246,0,U,60520,999,10527,.81106E-3,.94173E-3,0
TRANSPORTER-11 OBJECT BF,2024-149BF,2026-07-02T05:53:28.036032,15.94024805,.0006821,97.3711,280.4429,232.0544,128.0115,0,U,60521,999,10547,.12399E-2,.453442E-2,.83527E-4
CONNECTA IOT-2,2024-149BG,2026-07-02T11:28:41.168064,15.24103599,.000482,97.3838,261.3928,268.9684,91.1002,0,U,60522,999,10422,.22902E-3,.5495E-4,0
CONNECTA IOT-4,2024-149BJ,2026-07-02T04:38:53.233152,15.42713951,.00049101,97.3800,267.7462,220.1205,139.9680,0,U,60524,999,10464,.54016662E-3,.23542E-3,0
ORESAT0.5,2024-149BK,2026-07-02T04:56:04.126848,15.45654190,.00050705,97.3730,269.4410,209.2676,150.8290,0,U,60525,999,10479,.47559357E-3,.22883E-3,0
DEIMOS,2024-149BL,2026-07-02T12:07:45.138720,15.44776747,.000496,97.3785,269.8778,214.2987,145.7942,0,U,60526,999,10481,.46241E-3,.21587E-3,0
CUAVA-2,2024-149BM,2026-07-02T15:36:24.708672,15.36473501,.0005759,97.3725,265.1985,226.2602,133.8166,0,U,60527,999,10454,.36168E-3,.12803E-3,0
ERNST,2024-149BN,2026-07-02T12:15:03.149568,15.39610069,.0005045,97.3808,267.3482,226.3529,133.7299,0,U,60528,999,10463,.40559E-3,.15912E-3,0
TORO,2024-149BQ,2026-07-02T03:37:26.494176,14.96476353,.00014593,97.6779,257.5395,98.9397,261.1990,0,U,60530,999,10219,.25094529E-3,.2792E-4,0
HYPSO-2,2024-149BR,2026-07-02T11:44:00.787200,14.98867281,.0001569,97.6816,259.5254,116.9924,243.1459,0,U,60531,999,10234,.32777E-3,.39E-4,0
LEMU NGE,2024-149BS,2026-07-02T15:30:52.465248,14.95019459,.0001242,97.6840,258.2939,51.3385,308.7946,0,U,60532,999,10226,.19651E-3,.2093E-4,0
LEMUR-2-STELLA,2024-149BT,2026-07-02T04:06:22.244256,15.12128587,.00011481,97.6740,265.6937,101.5384,258.5975,0,U,60533,999,10276,.78521518E-3,.13479E-3,0
SATELIOT_2,2024-149BU,2026-07-02T11:21:15.403680,14.96415016,.0001626,97.6817,258.1505,89.1598,270.9809,0,U,60534,999,10225,.22752E-3,.2522E-4,0
NIGHTJAR,2024-149BV,2026-07-02T11:28:19.605216,14.99099551,.0001445,97.6827,259.9701,117.3948,242.7422,0,U,60535,999,14516,.32856E-3,.3933E-4,0
LEMUR-2-MARHISYAM,2024-149BW,2026-07-02T11:42:38.225088,15.11560020,.0003268,97.6884,266.4769,90.7390,269.4214,0,U,60536,999,10279,.6723E-3,.11348E-3,0
SATELIOT_4,2024-149BX,2026-07-02T16:21:11.998368,14.96720959,.0001871,97.6734,257.8716,31.6215,328.5119,0,U,60537,999,10229,.22395E-3,.2501E-4,0
PICO-02A021,2024-149BY,2026-07-02T16:12:09.421056,15.03403483,.0003612,97.6761,262.3754,348.8035,11.3109,0,U,60538,999,10206,.42879E-3,.5772E-4,0
ICEYE-X43,2024-149BZ,2026-07-02T04:11:41.090496,14.99728540,.00076556,97.6823,259.9372,39.0267,321.1508,0,U,60539,999,10236,.35086265E-3,.4276E-4,0
HAWK-10A,2024-149CA,2026-07-02T16:21:41.177376,14.96559628,.0003938,97.6888,259.3268,42.2946,317.8579,0,U,60540,999,10230,.18541E-3,.2052E-4,0
UMBRA-09,2024-149CB,2026-07-02T16:29:44.722752,15.18512863,.000142,97.6975,271.1626,227.5791,132.5323,0,U,60541,999,10307,.77149E-3,.15871E-3,0
QPS-SAR-8 (AMATERU-IV),2024-149CC,2026-07-02T15:02:33.868032,15.04293167,.0004247,97.6668,262.6477,72.6402,287.5288,0,U,60542,999,10259,.47232E-3,.6519E-4,0
ARCTIC WEATHER SATELLITE,2024-149CD,2026-07-02T11:12:51.017760,14.89809395,.0003551,97.6797,253.4958,74.9350,285.2260,0,U,60543,999,10157,.13084E-3,.1202E-4,0
CAPELLA-15 (ACADIA-5),2024-149CE,2026-07-02T17:50:36.632256,14.92414143,.000381,97.6766,256.2580,31.3549,328.7897,0,U,60544,999,10217,.51229E-3,.5194E-4,0
HAWK-10B,2024-149CF,2026-07-02T16:21:29.116800,14.96559258,.0006211,97.6810,258.6661,53.3259,306.8533,0,U,60545,999,10230,.18934E-3,.2097E-4,0
ICEYE-X39,2024-149CG,2026-07-02T05:17:20.512320,14.99990046,.0006718,97.6767,260.0399,80.4764,279.7218,0,U,60546,999,10237,.35634E-3,.4373E-4,0
UMBRA-10,2024-149CH,2026-07-02T11:44:25.806048,15.18510526,.0000754,97.6981,270.9897,174.4125,185.7117,0,U,60547,999,10305,.88681E-3,.18258E-3,0
ICEYE-X33,2024-149CJ,2026-07-02T04:04:08.472000,15.00850601,.0001893,97.7312,262.2259,44.8492,315.2885,0,U,60548,999,10245,.42739E-3,.5375E-4,0
ICEYE-X40,2024-149CK,2026-07-02T11:10:53.690016,14.97992686,.0005101,97.6800,259.7166,36.2399,323.9168,0,U,60549,999,10236,.16662E-3,.1909E-4,0
SATELIOT_1,2024-149CL,2026-07-02T15:44:45.192768,14.98127882,.0007167,97.6743,259.2982,31.0940,329.0706,0,U,60550,999,10238,.16493E-3,.1896E-4,0
BRO-14,2024-149CM,2026-07-02T10:38:35.028672,14.96216801,.0007962,97.6874,258.9472,55.0220,305.1748,0,U,60551,999,10227,.11676E-3,.126E-4,0
SATELIOT_3,2024-149CN,2026-07-02T03:56:52.174464,14.98121397,.00061812,97.6826,259.6179,51.6538,308.5239,0,U,60552,999,10232,.29551884E-3,.3443E-4,0
BRO-15,2024-149CP,2026-07-02T11:49:51.586752,14.96211052,.0009007,97.6799,258.5831,46.8682,313.3292,0,U,60553,999,10229,.36072E-3,.4014E-4,0
UM5-RIBAT,2024-149CQ,2026-07-02T16:05:17.176416,15.01163223,.0002195,97.6620,261.2615,35.3399,324.7971,0,U,60554,999,10251,.29632E-3,.3739E-4,0
UM5-EOSAT,2024-149CR,2026-07-02T02:22:13.432512,15.01648607,.00091624,97.6756,261.6636,71.3271,288.8947,0,U,60555,999,10245,.36258972E-3,.4652E-4,0
LASARSAT,2024-247Q,2026-07-02T16:03:49.146048,15.47293079,.0006585,44.9722,175.1548,71.8885,288.2722,0,U,62391,999,8571,.63607E-3,.32981E-3,0
CROCUBE,2024-247T,2026-07-02T06:15:31.098240,15.49290769,.0006479,44.9691,174.5342,75.1846,284.9762,0,U,62394,999,8568,.78103E-3,.43599E-3,0
TEVEL2-4,2025-052D,2026-07-02T16:45:45.844128,15.35166142,.0004576,97.3884,80.1195,74.9021,285.2729,0,U,63213,999,7249,.5895E-3,.20076E-3,0
TEVEL2-5,2025-052E,2026-07-02T15:43:58.433952,15.34983167,.0004562,97.3882,80.0199,76.4185,283.7567,0,U,63214,999,7248,.59165E-3,.20032E-3,0
TEVEL2-6,2025-052F,2026-07-02T05:05:06.475200,15.34930714,.0004421,97.3892,79.5600,78.1313,282.0426,0,U,63215,999,7241,.63291E-3,.21402E-3,0
TEVEL2-1,2025-052H,2026-07-02T10:36:17.123040,15.34387675,.000494,97.3860,79.3967,84.7539,275.4267,0,U,63217,999,7243,.64322E-3,.21382E-3,0
TEVEL2-3,2025-052J,2026-07-02T05:46:01.708320,15.34438788,.0004748,97.3861,79.2186,86.3332,273.8453,0,U,63218,999,7240,.63306E-3,.21076E-3,0
TEVEL2-2,2025-052K,2026-07-02T16:52:13.935648,15.34405680,.0004948,97.3858,79.6604,84.6363,275.5445,0,U,63219,999,7247,.5785E-3,.19229E-3,0
TEVEL2-9,2025-052AD,2026-07-02T10:32:44.205792,15.32374933,.0008264,97.3923,78.7387,91.0413,269.1776,0,U,63237,999,7236,.6112E-3,.19073E-3,0
TEVEL2-7,2025-052AE,2026-07-02T16:18:05.866848,15.32073469,.0008367,97.3925,78.8874,90.4399,269.7801,0,U,63238,999,7239,.54711E-3,.169E-3,0
TEVEL2-8,2025-052AF,2026-07-02T16:30:11.835072,15.32059240,.00084,97.3922,78.8721,90.8583,269.3621,0,U,63239,999,7239,.54458E-3,.16814E-3,0
FORESAIL-1 PRIME,2025-276DS,2026-07-02T16:15:08.823744,15.18841293,.0003672,97.4196,256.6654,71.4319,288.7315,0,U,66778,999,3275,.28756E-3,.5924E-4,0
